{
"type": "FeatureCollection",
"name": "goa",
"crs": { "type": "name", "properties": { "name": "urn:ogc:def:crs:OGC:1.3:CRS84" } },
"features": [
{ "type": "Feature", "properties": { }, "geometry": { "type": "Polygon", "coordinates": [ [ [ -89.92532330735979, 21.093714768222796 ], [ -89.398528316144564, 21.092671048359168 ], [ -89.094337710037465, 21.091327677391526 ], [ -89.094337710037465, 21.186702803416711 ], [ -89.017933196248421, 21.186278627776211 ], [ -89.017933196248421, 21.28165579097319 ], [ -88.941386514386849, 21.28119472044208 ], [ -88.787867824683758, 21.280165769645123 ], [ -88.633784028269957, 21.278993137851288 ], [ -88.479137562034921, 21.2776753067117 ], [ -88.323930912639256, 21.276210761902156 ], [ -88.323930912639256, 21.371571020595091 ], [ -88.24611830999973, 21.3707804064457 ], [ -88.24611830999973, 21.466139909136782 ], [ -88.168166616728413, 21.46530893788205 ], [ -87.894245071075844, 21.462102386295186 ], [ -87.894245071075844, 21.414429650926849 ], [ -87.854975483076942, 21.413934285628869 ], [ -87.854975483076942, 21.270921769327693 ], [ -87.697553970329722, 21.268855318363041 ], [ -87.539585461408308, 21.266634653795482 ], [ -87.381072745722577, 21.264258292283444 ], [ -87.222018663727752, 21.261724756816708 ], [ -87.062426107062237, 21.259032577057496 ], [ -87.062426107062237, 21.3543306261544 ], [ -86.982428818391654, 21.352919493695754 ], [ -86.982428818391654, 21.448214741745133 ], [ -86.902298018673775, 21.446758030771516 ], [ -86.580447275739644, 21.440522525742193 ], [ -86.256491008733093, 21.433624451283169 ], [ -86.256491008733093, 21.52886904674212 ], [ -86.175175912299594, 21.527033107641685 ], [ -86.175175912299594, 21.622272079835007 ], [ -86.09373120909008, 21.620387006581282 ], [ -85.930454618447712, 21.616488309294333 ], [ -85.766664541426451, 21.612417023992091 ], [ -85.602364334519734, 21.608171735031096 ], [ -85.437557406105796, 21.603751037072282 ], [ -85.272247216445592, 21.599153535448838 ], [ -85.106437277667212, 21.594377846535348 ], [ -84.940131153735877, 21.589422598118112 ], [ -84.940131153735877, 21.732107230247458 ], [ -84.89847751640734, 21.730833492801171 ], [ -84.89847751640734, 21.778392610064373 ], [ -84.270017897221209, 21.757872215724351 ], [ -84.270017897221209, 21.852918020797233 ], [ -84.185711465151201, 21.849973975680911 ], [ -84.185711465151186, 21.945008011182772 ], [ -84.101286117417885, 21.942006379392016 ], [ -84.101286117417885, 22.132046139282107 ], [ -84.101286117417885, 22.322070684296026 ], [ -84.101286117417885, 22.417075336369884 ], [ -84.016742339819814, 22.413974002142375 ], [ -84.016742339819828, 22.508962226907823 ], [ -83.932080621356974, 22.505801870059855 ], [ -83.762405333817583, 22.499334408226623 ], [ -83.762405333817583, 22.594283951280488 ], [ -83.677392758707086, 22.590965572285882 ], [ -83.677392758707086, 22.685896725399505 ], [ -83.592264230653768, 22.682517756854299 ], [ -83.421661338631552, 22.675610121878528 ], [ -83.250600735250657, 22.668501812323058 ], [ -83.079086548550549, 22.661191549303908 ], [ -83.079086548550549, 22.850867351813346 ], [ -82.907122956900977, 22.843304841672747 ], [ -82.907122956900977, 22.938104568690427 ], [ -82.82097395366776, 22.93423376757848 ], [ -82.82097395366776, 23.029010979258629 ], [ -82.734714188776692, 23.025075832833846 ], [ -82.734714188776692, 23.214572023927801 ], [ -82.734714188776692, 23.404019073375434 ], [ -82.734714188776692, 23.59341097767205 ], [ -82.561864522516359, 23.585232292785815 ], [ -82.214859856703825, 23.568232762999145 ], [ -81.866144173286031, 23.550368860919178 ], [ -81.866144173286031, 23.739436826958247 ], [ -81.691155917777778, 23.730121157194631 ], [ -81.515753465795839, 23.720584484502954 ], [ -81.33994143663287, 23.710825659620145 ], [ -81.163724496939722, 23.700843553918045 ], [ -81.163724496939722, 23.86602100070435 ], [ -81.141669143457904, 23.864750804881204 ], [ -81.141669143457904, 23.88834244173977 ], [ -80.987107360339493, 23.879345464311371 ], [ -80.987107360339493, 24.044409082855065 ], [ -80.965002315994809, 24.043102861100426 ], [ -80.965002315994809, 24.0666778834862 ], [ -80.810094787025363, 24.057427546943313 ], [ -80.810094787025363, 24.151688621442251 ], [ -80.721441711792338, 24.146308130169704 ], [ -80.721441711792338, 24.228756999875252 ], [ -80.710353240893781, 24.228078656046613 ], [ -80.710353240893781, 24.239855588965536 ], [ -80.45490260135216, 24.223998109598377 ], [ -80.45490260135216, 24.318156137767613 ], [ -80.365864972151613, 24.312511518316295 ], [ -80.365864972151613, 24.406632749012047 ], [ -80.276732738383643, 24.400913151270537 ], [ -80.276732738383643, 24.589058658934476 ], [ -80.276732738383643, 24.777113998455448 ], [ -80.276732738383643, 24.965073392978251 ], [ -80.276732738383643, 25.152931090635061 ], [ -80.276732738383643, 25.340681365387432 ], [ -80.45490260135216, 25.352382429540047 ], [ -80.810094787025363, 25.375062862003873 ], [ -80.810094787025363, 25.562883578454102 ], [ -80.898650203951789, 25.568433583585374 ], [ -80.898650203951789, 25.662313776275777 ], [ -80.987107360339493, 25.667818383456961 ], [ -80.987107360339493, 25.761682108052966 ], [ -81.075465656827589, 25.767141076277934 ], [ -81.075465656827589, 25.86098733917348 ], [ -81.163724496939722, 25.866400432130753 ], [ -81.163724496939722, 25.960228243469235 ], [ -81.33994143663287, 25.970902300968508 ], [ -81.33994143663287, 26.158512209447334 ], [ -81.515753465795839, 26.169000480733317 ], [ -81.691155917777778, 26.179249688329133 ], [ -81.691155917777778, 26.366825124615719 ], [ -81.691155917777778, 26.554255217361593 ], [ -81.515753465795839, 26.543903391536649 ], [ -81.515753465795839, 26.731132009948794 ], [ -81.6035061787546, 26.73636347512188 ], [ -81.6035061787546, 26.829932288831358 ], [ -81.691155917777778, 26.835115715312106 ], [ -81.691155917777778, 26.928657222750235 ], [ -81.866144173286031, 26.938867112825591 ], [ -81.866144173286031, 27.125876468704497 ], [ -81.866144173286031, 27.312718019472126 ], [ -82.040713660755813, 27.322780663999495 ], [ -82.040713660755813, 27.159262672499956 ], [ -82.062505176244997, 27.160498394709951 ], [ -82.062505176244997, 27.137127312970385 ], [ -82.214859856703825, 27.145667020975065 ], [ -82.301772819999258, 27.150464370128528 ], [ -82.301772819999258, 27.243964026383026 ], [ -82.388578286065538, 27.248712685426373 ], [ -82.388578286065538, 27.342180451971888 ], [ -82.388578286065538, 27.435604568819635 ], [ -82.301772819999258, 27.430833909119979 ], [ -82.301772819999258, 27.524202785856463 ], [ -82.214859856703825, 27.519360869919293 ], [ -82.214859856703825, 27.705941193196633 ], [ -82.214859856703825, 27.799162360931472 ], [ -82.12783995100024, 27.794226682922272 ], [ -82.12783995100024, 27.887390000590941 ], [ -82.214859856703825, 27.892336646120466 ], [ -82.214859856703825, 28.078541923215607 ], [ -82.561864522516359, 28.097803881433776 ], [ -82.561864522516359, 28.469788796949256 ], [ -82.388578286065538, 28.460197908759021 ], [ -82.388578286065538, 28.645842537565084 ], [ -82.388578286065538, 28.831275695587536 ], [ -82.388578286065538, 29.016492273096393 ], [ -82.561864522516359, 29.026202627020126 ], [ -82.561864522516359, 29.211236474477481 ], [ -82.691542938197216, 29.218385092334508 ], [ -82.691542938197216, 29.264615339692313 ], [ -82.734714188776692, 29.266969553727197 ], [ -82.734714188776692, 29.405581159562757 ], [ -82.734714188776692, 29.5901927837123 ], [ -82.907122956900977, 29.599518526898017 ], [ -83.250600735250657, 29.617428456801527 ], [ -83.250600735250657, 29.801906504362893 ], [ -83.421661338631552, 29.810526556132121 ], [ -83.421661338631552, 29.994793268346445 ], [ -83.592264230653768, 30.003200801062128 ], [ -83.592264230653768, 30.187249599096084 ], [ -83.762405333817583, 30.195444005857048 ], [ -83.932080621356974, 30.203395925859844 ], [ -84.101286117417885, 30.211107026336748 ], [ -84.101286117417885, 30.394988180451826 ], [ -84.270017897221209, 30.402487204940215 ], [ -84.270017897221209, 30.241581592772743 ], [ -84.291075868041986, 30.24249927598197 ], [ -84.291075868041986, 30.219496256476649 ], [ -84.438272087210208, 30.225813518220725 ], [ -84.60604486518308, 30.232812323332393 ], [ -84.60604486518308, 30.071637202662099 ], [ -84.626982424785794, 30.072492815483407 ], [ -84.626982424785794, 30.049451575701923 ], [ -84.940131153735877, 30.061845033158388 ], [ -84.940131153735877, 30.246109698331221 ], [ -84.773332460410074, 30.239577135436157 ], [ -84.773332460410074, 30.423561328151237 ], [ -84.773332460410074, 30.607284196351138 ], [ -84.60604486518308, 30.600470765243493 ], [ -84.60604486518308, 30.692220765856664 ], [ -84.522218889576934, 30.688719637347102 ], [ -84.522218889576919, 30.780396521411184 ], [ -84.438272087210208, 30.776829944522085 ], [ -84.438272087210208, 30.959968163734466 ], [ -84.522218889576934, 30.963547018079311 ], [ -84.522218889576919, 31.055019473028207 ], [ -84.60604486518308, 31.058544742218064 ], [ -84.689749544296902, 31.0620105698593 ], [ -84.689749544296902, 30.970526267856489 ], [ -84.773332460410074, 30.973927104720254 ], [ -84.856793150240705, 30.977269045344766 ], [ -84.856793150240705, 31.068764787827288 ], [ -84.940131153735877, 31.072053624026381 ], [ -84.940131153735877, 31.163485444249812 ], [ -85.106437277667212, 31.169898456029927 ], [ -85.106437277667212, 30.986943723363652 ], [ -85.106437277667212, 30.803713033087927 ], [ -85.106437277667212, 30.620211016832023 ], [ -85.106437277667212, 30.52835972183674 ], [ -85.189404494162844, 30.531441433300675 ], [ -85.189404494162829, 30.439518581760076 ], [ -85.272247216445592, 30.442537644415054 ], [ -85.272247216445592, 30.258485121148258 ], [ -85.437557406105796, 30.264331536799688 ], [ -85.437557406105796, 30.448405171798449 ], [ -85.602364334519734, 30.4540467402954 ], [ -85.930454618447712, 30.46465927910684 ], [ -86.012157307320578, 30.467174042220073 ], [ -86.012157307320578, 30.559146142064058 ], [ -86.09373120909008, 30.561610393865369 ], [ -86.09373120909008, 30.65352041214604 ], [ -86.256491008733093, 30.658293291209858 ], [ -86.418730764604092, 30.662848634916038 ], [ -86.580447275739644, 30.667188321827371 ], [ -86.741637392933839, 30.671314240135548 ], [ -86.902298018673775, 30.675228287237864 ], [ -86.902298018673775, 30.858922248180154 ], [ -87.062426107062237, 30.862639228628268 ], [ -87.062426107062237, 30.770819763114556 ], [ -87.142289511998555, 30.772596763525907 ], [ -87.142289511998555, 30.680706271453992 ], [ -87.222018663727752, 30.682428400922678 ], [ -87.381072745722577, 30.685718304558925 ], [ -87.539585461408308, 30.68880401027112 ], [ -87.539585461408308, 30.504792970489635 ], [ -87.697553970329722, 30.507666249638952 ], [ -87.697553970329722, 30.691687455238878 ], [ -87.697553970329722, 30.875438706739867 ], [ -87.697553970329722, 31.058915321459544 ], [ -87.697553970329722, 31.219228426708305 ], [ -87.677837763853034, 31.218875539488785 ], [ -87.677837763853034, 31.241759630501193 ], [ -87.539585461408308, 31.239199524559009 ], [ -87.539585461408308, 31.330687202260389 ], [ -87.460396953080576, 31.329151580171601 ], [ -87.460396953080576, 31.420565231807331 ], [ -87.381072745722577, 31.418975581131107 ], [ -87.381072745722577, 31.601581010312369 ], [ -87.539585461408308, 31.604718973593695 ], [ -87.854975483076942, 31.610379791106251 ], [ -88.011847261136026, 31.612906609243375 ], [ -88.011847261136026, 31.430264503206526 ], [ -88.168166616728413, 31.432584047761008 ], [ -88.168166616728413, 31.249645667487158 ], [ -88.168166616728413, 30.882920880897196 ], [ -88.323930912639256, 30.885022063783879 ], [ -88.323930912639256, 30.701237598393558 ], [ -88.479137562034921, 30.703139018905311 ], [ -88.479137562034921, 30.88693009468518 ], [ -88.556530974632878, 30.887812296314621 ], [ -88.556530974632878, 30.979606449732728 ], [ -88.633784028269957, 30.980442536885274 ], [ -88.633784028269957, 31.072168727896322 ], [ -88.787867824683758, 31.073701616119003 ], [ -88.941386514386849, 31.075046661025727 ], [ -88.941386514386849, 30.891515084078293 ], [ -88.941386514386849, 30.707708126879261 ], [ -89.094337710037465, 30.708859377958024 ], [ -89.094337710037465, 30.524777669765694 ], [ -89.398528316144564, 30.526528224501032 ], [ -89.700421526130839, 30.527566890548513 ], [ -89.700421526130839, 30.343209177862011 ], [ -89.850501158718856, 30.343465600882521 ], [ -89.850501158718856, 30.527824234785818 ], [ -90.0, 30.527909573615574 ], [ -90.299578473869161, 30.527566890548513 ], [ -90.450236802489357, 30.527135550193471 ], [ -90.450236802489357, 30.342779381611944 ], [ -90.601471683855436, 30.342174230084332 ], [ -90.601471683855436, 30.157558913957484 ], [ -90.753280926391554, 30.15677927482561 ], [ -90.753280926391554, 30.341391743083996 ], [ -90.905662289962549, 30.340429942619771 ], [ -91.058613485613165, 30.339286853260226 ], [ -91.212132175316242, 30.337960502493694 ], [ -91.366215971730043, 30.336448921092703 ], [ -91.366215971730043, 30.244184014668733 ], [ -91.443469025367136, 30.243359646685771 ], [ -91.443469025367136, 30.151031585672147 ], [ -91.520862437965093, 30.150161852901089 ], [ -91.676069087360759, 30.148280792059811 ], [ -91.676069087360759, 29.963443312846689 ], [ -91.831833383271587, 29.961379501955079 ], [ -91.831833383271587, 30.146209313142393 ], [ -91.988152738863974, 30.143945471164493 ], [ -91.988152738863974, 29.960568937739271 ], [ -91.989376162055052, 29.96055055683912 ], [ -91.989376162055052, 29.959105660812178 ], [ -92.145024516923058, 29.956674998177537 ], [ -92.302446029670293, 29.954030446207415 ], [ -92.302446029670293, 29.861534858927186 ], [ -92.381362082752659, 29.8601412862571 ], [ -92.381362082752659, 29.767586259304206 ], [ -92.460414538591706, 29.76614591270959 ], [ -92.777981336272248, 29.759885670761136 ], [ -92.777981336272248, 29.944904560802581 ], [ -92.937573892937763, 29.941458830691701 ], [ -93.097701981326225, 29.937808055298987 ], [ -93.097701981326225, 30.12255021908932 ], [ -93.097701981326225, 30.214826029864273 ], [ -93.017571181608346, 30.216687465397424 ], [ -93.017571181608346, 30.308902345121485 ], [ -93.017571181608346, 30.401052280948601 ], [ -93.097701981326225, 30.399184087624278 ], [ -93.097701981326225, 30.491265134681459 ], [ -93.258362607066175, 30.487364901684476 ], [ -93.258362607066175, 30.395290829576432 ], [ -93.338891671615329, 30.393265291038425 ], [ -93.338891671615329, 30.301129396480125 ], [ -93.41955272426037, 30.299054685595301 ], [ -93.581269235395908, 30.294745847968723 ], [ -93.581269235395908, 30.110303395260107 ], [ -93.581269235395908, 29.925606650232162 ], [ -93.743508991266907, 29.921116930120693 ], [ -93.906268790909934, 29.9164128279998 ], [ -94.069545381552302, 29.911492505034367 ], [ -94.233335458573549, 29.90635413287983 ], [ -94.397635665480266, 29.900995894110174 ], [ -94.397635665480266, 29.716142586927692 ], [ -94.562442593894218, 29.710583748659417 ], [ -94.562442593894218, 29.895415982648124 ], [ -94.645034999361187, 29.892542338467827 ], [ -94.645034999361187, 29.984860377092204 ], [ -94.727752783554408, 29.981925159422577 ], [ -94.727752783554408, 30.074175167982709 ], [ -95.059868846264123, 30.061845033158388 ], [ -95.22666753958994, 30.055336390038086 ], [ -95.22666753958994, 29.870843909799408 ], [ -95.39395513481692, 29.864128971288832 ], [ -95.39395513481692, 29.679415025517528 ], [ -95.39395513481692, 29.494459428615343 ], [ -95.22666753958994, 29.501123243302253 ], [ -95.22666753958994, 29.315904918346988 ], [ -95.39395513481692, 29.309267132809477 ], [ -95.39395513481692, 29.123843134253733 ], [ -95.561727912789792, 29.117003063177254 ], [ -95.561727912789792, 28.977806695305276 ], [ -95.603746476336482, 28.976066030950591 ], [ -95.603746476336482, 28.929641086472824 ], [ -95.729982102778806, 28.924338123732138 ], [ -96.067919378643026, 28.909559669047901 ], [ -96.407735769346232, 28.893844005219322 ], [ -96.492979745406913, 28.889767139147107 ], [ -96.492979745406913, 28.982522059406993 ], [ -96.578338661368448, 28.978377195638199 ], [ -96.6638120059594, 28.974172433341344 ], [ -96.6638120059594, 28.881434476444642 ], [ -96.749399264749357, 28.877178286843542 ], [ -96.749399264749357, 28.784394315991129 ], [ -96.835099920155571, 28.780086803452665 ], [ -96.835099920155571, 28.687257682308179 ], [ -96.920913451449465, 28.682898955770504 ], [ -96.920913451449465, 28.502908901342252 ], [ -96.926280533045912, 28.502635590311769 ], [ -96.926280533045912, 28.496826216986289 ], [ -97.092877043099023, 28.488238105469058 ], [ -97.092877043099023, 28.30226816315486 ], [ -97.265285811223308, 28.293203706659529 ], [ -97.438135477483655, 28.283897127413784 ], [ -97.438135477483655, 28.097803881433776 ], [ -97.611421713934476, 28.088294880897077 ], [ -97.611421713934476, 27.902774808121183 ], [ -97.612099463585537, 27.90273735020924 ], [ -97.612099463585537, 27.902009445377363 ], [ -97.785140143296175, 27.892336646120466 ], [ -97.785140143296175, 27.705941193196633 ], [ -97.785140143296175, 27.531027455340492 ], [ -97.796011794507578, 27.530417791046709 ], [ -97.796011794507578, 27.518751379125849 ], [ -97.959286339244201, 27.509495325279403 ], [ -97.959286339244201, 27.322780663999495 ], [ -97.959286339244187, 27.13589231503224 ], [ -97.785140143296175, 27.145667020975065 ], [ -97.785140143296175, 26.958564290977371 ], [ -97.785140143296175, 26.771298280565379 ], [ -97.633112972358845, 26.779575218670722 ], [ -97.633112972358845, 26.756150758732939 ], [ -97.611421713934476, 26.757317684482338 ], [ -97.611421713934476, 26.593273202488763 ], [ -97.611421713934476, 26.405650840616694 ], [ -97.611421713934476, 26.217881319679496 ], [ -97.438135477483655, 26.226954467957331 ], [ -97.438135477483655, 26.038997417894336 ], [ -97.611421713934476, 26.029970227777479 ], [ -97.611421713934476, 25.841923184778146 ], [ -97.438135477483655, 25.850903994527275 ], [ -97.265285811223322, 25.859655975398585 ], [ -97.265285811223322, 25.765537145272035 ], [ -97.351655801423533, 25.761200970650016 ], [ -97.351655801423533, 25.667061415068225 ], [ -97.438135477483655, 25.662679851275634 ], [ -97.611421713934476, 25.65374584153362 ], [ -97.785140143296175, 25.64458288028289 ], [ -97.785140143296175, 25.456329363736664 ], [ -97.959286339244187, 25.446985820758339 ], [ -97.959286339244201, 25.258663938168002 ], [ -97.959286339244187, 25.070229739520659 ], [ -97.959286339244201, 24.881688985559133 ], [ -97.959286339244201, 24.693047463766309 ], [ -97.959286339244187, 24.598690730624728 ], [ -98.046518453125628, 24.594049275555644 ], [ -98.046518453125628, 24.499682759036251 ], [ -97.98108446872547, 24.503159184816209 ], [ -97.98108446872547, 24.479561564240313 ], [ -97.959286339244201, 24.48071254201357 ], [ -97.959286339244187, 24.315485395218364 ], [ -97.959286339244187, 24.126576549444099 ], [ -97.959286339244201, 23.937590336054591 ], [ -98.133855826713983, 23.928439678581277 ], [ -98.133855826713983, 23.786693876186188 ], [ -98.17756380884515, 23.784382125474135 ], [ -98.177563808845136, 23.737128564926415 ], [ -98.221297893063252, 23.734806544817836 ], [ -98.221297893063252, 23.640294366409766 ], [ -98.133855826713983, 23.644910612047628 ], [ -98.133855826713983, 23.550368860919178 ], [ -97.959286339244187, 23.559409460981765 ], [ -97.959286339244201, 23.370226679434698 ], [ -97.959286339244187, 23.180990288729284 ], [ -97.959286339244201, 22.99170627769513 ], [ -97.959286339244201, 22.81421460980928 ], [ -97.970184577785133, 22.813669633450402 ], [ -97.970184577785147, 22.801835896930807 ], [ -98.133855826713983, 22.793565073593367 ], [ -98.133855826713983, 22.414927993694132 ], [ -98.133855826713983, 22.036198493259729 ], [ -97.959286339244201, 22.044782723210766 ], [ -97.959286339244201, 21.855339689145183 ], [ -97.959286339244187, 21.665891403446327 ], [ -97.785140143296175, 21.674154340839902 ], [ -97.785140143296175, 21.295149901776327 ], [ -97.611421713934476, 21.303096961214152 ], [ -97.611421713934476, 21.113553439682736 ], [ -97.785140143296175, 21.105663729188077 ], [ -97.785140143296175, 20.916196434927055 ], [ -97.698227180000742, 20.920136930413378 ], [ -97.698227180000742, 20.825397706075261 ], [ -97.611421713934476, 20.829274838939487 ], [ -97.611421713934476, 20.734528162125766 ], [ -97.438135477483655, 20.742108295445835 ], [ -97.438135477483655, 20.552581958706181 ], [ -97.265285811223322, 20.559913902673998 ], [ -97.265285811223308, 20.370368516000283 ], [ -97.092877043099023, 20.377455986962421 ], [ -97.092877043099023, 20.187898574137712 ], [ -96.920913451449465, 20.194745304176941 ], [ -96.920913451449465, 20.005182919083015 ], [ -96.749399264749357, 20.011792654723411 ], [ -96.749399264749357, 19.822232379650607 ], [ -96.578338661368448, 19.828608880558885 ], [ -96.578338661368448, 19.639057824499481 ], [ -96.578338661368448, 19.449572964512086 ], [ -96.578338661368448, 19.260160500426821 ], [ -96.407735769346232, 19.266207604285814 ], [ -96.407735769346232, 19.07682340041956 ], [ -96.237594666182417, 19.082647244138837 ], [ -96.237594666182417, 18.893298484348957 ], [ -96.067919378643026, 18.898902874283401 ], [ -96.067919378643026, 18.709596761377792 ], [ -96.067919378643026, 18.614979504805408 ], [ -96.152698545773561, 18.612234205398789 ], [ -96.152698545773561, 18.517653793146962 ], [ -96.237594666182417, 18.514878722416672 ], [ -96.237594666182417, 18.325820109397444 ], [ -96.067919378643026, 18.331280229699225 ], [ -96.067919378643026, 18.142282196811731 ], [ -95.898713882582101, 18.147530429852342 ], [ -95.729982102778806, 18.152616389132458 ], [ -95.561727912789792, 18.157541185814683 ], [ -95.561727912789792, 17.968520880199726 ], [ -95.39395513481692, 17.973242762671642 ], [ -95.22666753958994, 17.977807176118464 ], [ -95.059868846264123, 17.98221525669452 ], [ -95.059868846264123, 18.171359893911166 ], [ -95.184921887560279, 18.168038565904642 ], [ -95.184921887560279, 18.215335323578053 ], [ -95.22666753958994, 18.214206027112649 ], [ -95.22666753958994, 18.356130547430158 ], [ -95.059868846264123, 18.360618490699899 ], [ -94.893562722332803, 18.364948428175978 ], [ -94.893562722332803, 18.175651392197146 ], [ -94.810595505837171, 18.177738781823159 ], [ -94.810595505837171, 18.083123171757197 ], [ -94.727752783554408, 18.085162647721656 ], [ -94.727752783554408, 17.990567019501995 ], [ -94.893562722332803, 17.986468151749612 ], [ -94.893562722332803, 17.797404907016279 ], [ -94.893562722332803, 17.608467849241897 ], [ -95.059868846264123, 17.604292639572794 ], [ -95.059868846264123, 17.226900100978906 ], [ -94.727752783554408, 17.234945553864058 ], [ -94.727752783554408, 17.329279845711685 ], [ -94.645034999361187, 17.331208026932728 ], [ -94.645034999361187, 17.425586864373894 ], [ -94.562442593894218, 17.427487201827741 ], [ -94.562442593894218, 17.616365796853781 ], [ -94.397635665480266, 17.620090838003652 ], [ -94.069545381552302, 17.627098886606937 ], [ -94.069545381552302, 18.005445743974434 ], [ -93.743508991266907, 18.011991800154043 ], [ -93.743508991266907, 18.10668472413635 ], [ -93.662323906585954, 18.108236842910653 ], [ -93.662323906585954, 18.202965746781032 ], [ -93.581269235395908, 18.204488279118202 ], [ -93.41955272426037, 18.20742420893286 ], [ -93.258362607066175, 18.210215670588852 ], [ -93.097701981326225, 18.212863924779789 ], [ -92.937573892937777, 18.215370239581084 ], [ -92.777981336272248, 18.217735890134893 ], [ -92.777981336272248, 18.028174309880402 ], [ -92.460414538591706, 18.032449988211788 ], [ -92.302446029670293, 18.03438383169749 ], [ -92.302446029670293, 17.844884132816034 ], [ -92.145024516923058, 17.846667313501467 ], [ -92.145024516923058, 17.988793057770685 ], [ -92.105754928924142, 17.989221143544942 ], [ -92.105754928924142, 18.036612454724349 ], [ -91.988152738863974, 18.037849969189494 ], [ -91.988152738863974, 18.227499264573812 ], [ -92.066519741884193, 18.226675115934054 ], [ -92.066519741884193, 18.321538390779335 ], [ -92.145024516923058, 18.320677018059012 ], [ -92.145024516923058, 18.415563640394062 ], [ -91.909923842250507, 18.41805836667373 ], [ -91.909923842250507, 18.323160698216817 ], [ -91.831833383271587, 18.323921962813497 ], [ -91.831833383271587, 18.229048064192604 ], [ -91.676069087360759, 18.230465297407026 ], [ -91.520862437965093, 18.231752284811037 ], [ -91.366215971730043, 18.232910351331164 ], [ -91.366215971730043, 18.422719846742339 ], [ -91.212132175316242, 18.423759536912748 ], [ -91.212132175316242, 18.518708772194366 ], [ -91.135302041758422, 18.519182847270997 ], [ -91.135302041758422, 18.614159706499617 ], [ -91.058613485613165, 18.614603903443545 ], [ -91.058613485613165, 18.80463497620811 ], [ -91.058613485613165, 18.899685682789411 ], [ -90.982066803751593, 18.900103472031429 ], [ -90.982066803751593, 18.995178365871951 ], [ -90.905662289962549, 18.995565772975723 ], [ -90.753280926391554, 18.996244779371747 ], [ -90.753280926391554, 19.18646766709351 ], [ -90.601471683855436, 19.187024772520196 ], [ -90.601471683855436, 19.567713985165142 ], [ -90.450236802489357, 19.568152029080682 ], [ -90.450236802489357, 19.758604682692877 ], [ -90.299578473869161, 19.758918330933273 ], [ -90.299578473869161, 19.949434767717815 ], [ -90.299578473869161, 20.330626270512067 ], [ -90.299578473869161, 20.711987441421787 ], [ -90.149498841281144, 20.712182011812459 ], [ -90.149498841281144, 20.902912011160005 ], [ -90.0, 20.902977018852855 ], [ -90.0, 20.998351504313177 ], [ -89.92532330735979, 20.998335223704 ], [ -89.92532330735979, 21.093714768222796 ] ], [ [ -95.22666753958994, 18.356130547430158 ], [ -95.39395513481692, 18.351483429256266 ], [ -95.39395513481692, 18.540769022493294 ], [ -95.22666753958994, 18.545457225828077 ], [ -95.22666753958994, 18.356130547430158 ] ] ] } }
]
}
